KUIPER-00114            
1 65151U 25171V   26199.73396171  .00001454  00000+0  21966-3 0  9998
2 65151  51.9011 316.1179 0000488 114.3310 245.7703 14.79936120 52049
KUIPER-00115            
1 65152U 25171W   26199.33687682  .00001476  00000+0  22252-3 0  9998
2 65152  51.9019 310.3754 0000446 126.9019 233.1985 14.79930103 52095
KUIPER-00116            
1 65153U 25171X   26199.70288803 -.00000452  00000+0 -30353-4 0  9999
2 65153  51.8981 313.7902 0000804  95.1981 264.9073 14.79923119 52075
KUIPER-00118            
1 65154U 25171Y   26199.76771111  .00001508  00000+0  22681-3 0  9990
2 65154  51.9010 315.9556 0000411 106.5232 253.5775 14.79936079 52059
KUIPER-00119            
1 65155U 25171Z   26199.71369661  .00000194  00000+0  54466-4 0  9996
2 65155  51.9026 303.7903 0000029  59.6172 300.4793 14.79932121 52218
KUIPER-00120            
1 65762U 25217A   26199.34274600  .00001076  00000+0  17009-3 0  9999
2 65762  51.8978 195.3075 0000507  63.3238 296.7776 14.79936756 44080
KUIPER-00132            
1 65763U 25217B   26198.97450682  .00015506  00000+0  34996-3 0  9991
2 65763  51.8546  89.1282 0007331  75.5741 284.6061 15.43380440 45526
KUIPER-00133            
1 65764U 25217C   26199.24146500  .00001028  00000+0  16375-3 0  9999
2 65764  51.9029 195.8660 0000482  54.5341 305.5666 14.79936821 44073
KUIPER-00139            
1 65765U 25217D   26199.88427492  .00001387  00000+0  21092-3 0  9992
2 65765  51.8981 160.4799 0000759  79.7520 280.3528 14.79925201 44624
KUIPER-00142            
1 65766U 25217E   26199.63171740  .00000519  00000+0  97111-4 0  9990
2 65766  51.8980 176.5567 0000552  60.6672 299.4345 14.79925553 44373
KUIPER-00145            
1 65767U 25217F   26199.15640823  .00001149  00000+0  17974-3 0  9999
2 65767  51.8991 181.1813 0000723  67.3063 292.7976 14.79923793 44268
KUIPER-00147            
1 65768U 25217G   26199.25490934 -.00000066  00000+0  20312-4 0  9996
2 65768  51.8967 183.2252 0000547  85.2478 274.8547 14.79928260 44242
KUIPER-00148            
1 65769U 25217H   26199.83335647  .00028614  00000+0  37670-2 0  9991
2 65769  51.9032 163.1816 0000617  70.5746  32.8769 14.79926928  5405
KUIPER-00150            
1 65770U 25217J   26199.24410001 -.00010471  00000+0 -13448-2 0  9997
2 65770  51.8999 193.3077 0000593  74.8033 285.2995 14.79989821 44107
KUIPER-00151            
1 65771U 25217K   26199.65739487  .00000285  00000+0  66454-4 0  9992
2 65771  51.8986 183.9802 0000586  62.2406 297.8616 14.79924368 44274
KUIPER-00152            
1 65772U 25217L   26199.36703942  .00001186  00000+0  18448-3 0  9998
2 65772  51.9002 172.7468 0000656  63.5702 296.5328 14.79935776 44406
