{"fetched_at":"2026-07-19T07:04:47.356Z","source":"https://celestrak.org/NORAD/elements/gp.php?GROUP=kuiper&FORMAT=JSON","constellation":"kuiper","records":[{"OBJECT_NAME":"KUIPER-00114","OBJECT_ID":"2025-171V","EPOCH":"2026-07-18T17:36:54.291744","CLASSIFICATION_TYPE":"U","MEAN_MOTION":14.7993612,"ECCENTRICITY":0.0000488,"INCLINATION":51.9011,"RA_OF_ASC_NODE":316.1179,"ARG_OF_PERICENTER":114.331,"MEAN_ANOMALY":245.7703,"EPHEMERIS_TYPE":0,"NORAD_CAT_ID":65151,"ELEMENT_SET_NO":999,"REV_AT_EPOCH":5204,"BSTAR":0.00021966,"MEAN_MOTION_DOT":0.00001454,"MEAN_MOTION_DDOT":0},{"OBJECT_NAME":"KUIPER-00115","OBJECT_ID":"2025-171W","EPOCH":"2026-07-18T08:05:06.157248","CLASSIFICATION_TYPE":"U","MEAN_MOTION":14.79930103,"ECCENTRICITY":0.00004461,"INCLINATION":51.9019,"RA_OF_ASC_NODE":310.3754,"ARG_OF_PERICENTER":126.9019,"MEAN_ANOMALY":233.1985,"EPHEMERIS_TYPE":0,"NORAD_CAT_ID":65152,"ELEMENT_SET_NO":999,"REV_AT_EPOCH":5209,"BSTAR":0.00022251807,"MEAN_MOTION_DOT":0.00001476,"MEAN_MOTION_DDOT":0},{"OBJECT_NAME":"KUIPER-00116","OBJECT_ID":"2025-171X","EPOCH":"2026-07-18T16:52:09.525792","CLASSIFICATION_TYPE":"U","MEAN_MOTION":14.79923119,"ECCENTRICITY":0.0000804,"INCLINATION":51.8981,"RA_OF_ASC_NODE":313.7902,"ARG_OF_PERICENTER":95.1981,"MEAN_ANOMALY":264.9073,"EPHEMERIS_TYPE":0,"NORAD_CAT_ID":65153,"ELEMENT_SET_NO":999,"REV_AT_EPOCH":5207,"BSTAR":-0.000030353,"MEAN_MOTION_DOT":-0.00000452,"MEAN_MOTION_DDOT":0},{"OBJECT_NAME":"KUIPER-00118","OBJECT_ID":"2025-171Y","EPOCH":"2026-07-18T18:25:30.239904","CLASSIFICATION_TYPE":"U","MEAN_MOTION":14.79936079,"ECCENTRICITY":0.0000411,"INCLINATION":51.901,"RA_OF_ASC_NODE":315.9556,"ARG_OF_PERICENTER":106.5232,"MEAN_ANOMALY":253.5775,"EPHEMERIS_TYPE":0,"NORAD_CAT_ID":65154,"ELEMENT_SET_NO":999,"REV_AT_EPOCH":5205,"BSTAR":0.00022681,"MEAN_MOTION_DOT":0.00001508,"MEAN_MOTION_DDOT":0},{"OBJECT_NAME":"KUIPER-00119","OBJECT_ID":"2025-171Z","EPOCH":"2026-07-18T17:07:43.387104","CLASSIFICATION_TYPE":"U","MEAN_MOTION":14.79932121,"ECCENTRICITY":0.0000029,"INCLINATION":51.9026,"RA_OF_ASC_NODE":303.7903,"ARG_OF_PERICENTER":59.6172,"MEAN_ANOMALY":300.4793,"EPHEMERIS_TYPE":0,"NORAD_CAT_ID":65155,"ELEMENT_SET_NO":999,"REV_AT_EPOCH":5221,"BSTAR":0.000054466,"MEAN_MOTION_DOT":0.00000194,"MEAN_MOTION_DDOT":0},{"OBJECT_NAME":"KUIPER-00120","OBJECT_ID":"2025-217A","EPOCH":"2026-07-18T08:13:33.254400","CLASSIFICATION_TYPE":"U","MEAN_MOTION":14.79936756,"ECCENTRICITY":0.00005076,"INCLINATION":51.8978,"RA_OF_ASC_NODE":195.3075,"ARG_OF_PERICENTER":63.3238,"MEAN_ANOMALY":296.7776,"EPHEMERIS_TYPE":0,"NORAD_CAT_ID":65762,"ELEMENT_SET_NO":999,"REV_AT_EPOCH":4408,"BSTAR":0.00017009373,"MEAN_MOTION_DOT":0.00001076,"MEAN_MOTION_DDOT":0},{"OBJECT_NAME":"KUIPER-00132","OBJECT_ID":"2025-217B","EPOCH":"2026-07-17T23:23:17.389248","CLASSIFICATION_TYPE":"U","MEAN_MOTION":15.4338044,"ECCENTRICITY":0.00073317,"INCLINATION":51.8546,"RA_OF_ASC_NODE":89.1282,"ARG_OF_PERICENTER":75.5741,"MEAN_ANOMALY":284.6061,"EPHEMERIS_TYPE":0,"NORAD_CAT_ID":65763,"ELEMENT_SET_NO":999,"REV_AT_EPOCH":4552,"BSTAR":0.00034996403,"MEAN_MOTION_DOT":0.00015506,"MEAN_MOTION_DDOT":0},{"OBJECT_NAME":"KUIPER-00133","OBJECT_ID":"2025-217C","EPOCH":"2026-07-18T05:47:42.576000","CLASSIFICATION_TYPE":"U","MEAN_MOTION":14.79936821,"ECCENTRICITY":0.00004828,"INCLINATION":51.9029,"RA_OF_ASC_NODE":195.866,"ARG_OF_PERICENTER":54.5341,"MEAN_ANOMALY":305.5666,"EPHEMERIS_TYPE":0,"NORAD_CAT_ID":65764,"ELEMENT_SET_NO":999,"REV_AT_EPOCH":4407,"BSTAR":0.00016374632,"MEAN_MOTION_DOT":0.00001028,"MEAN_MOTION_DDOT":0},{"OBJECT_NAME":"KUIPER-00139","OBJECT_ID":"2025-217D","EPOCH":"2026-07-18T21:13:21.353088","CLASSIFICATION_TYPE":"U","MEAN_MOTION":14.79925201,"ECCENTRICITY":0.0000759,"INCLINATION":51.8981,"RA_OF_ASC_NODE":160.4799,"ARG_OF_PERICENTER":79.752,"MEAN_ANOMALY":280.3528,"EPHEMERIS_TYPE":0,"NORAD_CAT_ID":65765,"ELEMENT_SET_NO":999,"REV_AT_EPOCH":4462,"BSTAR":0.00021092,"MEAN_MOTION_DOT":0.00001387,"MEAN_MOTION_DDOT":0},{"OBJECT_NAME":"KUIPER-00142","OBJECT_ID":"2025-217E","EPOCH":"2026-07-18T15:09:40.383360","CLASSIFICATION_TYPE":"U","MEAN_MOTION":14.79925553,"ECCENTRICITY":0.0000552,"INCLINATION":51.898,"RA_OF_ASC_NODE":176.5567,"ARG_OF_PERICENTER":60.6672,"MEAN_ANOMALY":299.4345,"EPHEMERIS_TYPE":0,"NORAD_CAT_ID":65766,"ELEMENT_SET_NO":999,"REV_AT_EPOCH":4437,"BSTAR":0.000097111,"MEAN_MOTION_DOT":0.00000519,"MEAN_MOTION_DDOT":0},{"OBJECT_NAME":"KUIPER-00145","OBJECT_ID":"2025-217F","EPOCH":"2026-07-18T03:45:13.671072","CLASSIFICATION_TYPE":"U","MEAN_MOTION":14.79923793,"ECCENTRICITY":0.00007231,"INCLINATION":51.8991,"RA_OF_ASC_NODE":181.1813,"ARG_OF_PERICENTER":67.3063,"MEAN_ANOMALY":292.7976,"EPHEMERIS_TYPE":0,"NORAD_CAT_ID":65767,"ELEMENT_SET_NO":999,"REV_AT_EPOCH":4426,"BSTAR":0.00017974207,"MEAN_MOTION_DOT":0.00001149,"MEAN_MOTION_DDOT":0},{"OBJECT_NAME":"KUIPER-00147","OBJECT_ID":"2025-217G","EPOCH":"2026-07-18T06:07:04.166976","CLASSIFICATION_TYPE":"U","MEAN_MOTION":14.7992826,"ECCENTRICITY":0.0000547,"INCLINATION":51.8967,"RA_OF_ASC_NODE":183.2252,"ARG_OF_PERICENTER":85.2478,"MEAN_ANOMALY":274.8547,"EPHEMERIS_TYPE":0,"NORAD_CAT_ID":65768,"ELEMENT_SET_NO":999,"REV_AT_EPOCH":4424,"BSTAR":0.000020312336,"MEAN_MOTION_DOT":-6.6e-7,"MEAN_MOTION_DDOT":0},{"OBJECT_NAME":"KUIPER-00148","OBJECT_ID":"2025-217H","EPOCH":"2026-07-18T20:00:01.999008","CLASSIFICATION_TYPE":"U","MEAN_MOTION":14.79926928,"ECCENTRICITY":0.0000617,"INCLINATION":51.9032,"RA_OF_ASC_NODE":163.1816,"ARG_OF_PERICENTER":70.5746,"MEAN_ANOMALY":32.8769,"EPHEMERIS_TYPE":0,"NORAD_CAT_ID":65769,"ELEMENT_SET_NO":999,"REV_AT_EPOCH":540,"BSTAR":0.003767,"MEAN_MOTION_DOT":0.00028614,"MEAN_MOTION_DDOT":0},{"OBJECT_NAME":"KUIPER-00150","OBJECT_ID":"2025-217J","EPOCH":"2026-07-18T05:51:30.240864","CLASSIFICATION_TYPE":"U","MEAN_MOTION":14.79989821,"ECCENTRICITY":0.00005931,"INCLINATION":51.8999,"RA_OF_ASC_NODE":193.3077,"ARG_OF_PERICENTER":74.8033,"MEAN_ANOMALY":285.2995,"EPHEMERIS_TYPE":0,"NORAD_CAT_ID":65770,"ELEMENT_SET_NO":999,"REV_AT_EPOCH":4410,"BSTAR":-0.001344795,"MEAN_MOTION_DOT":-0.00010471,"MEAN_MOTION_DDOT":0},{"OBJECT_NAME":"KUIPER-00151","OBJECT_ID":"2025-217K","EPOCH":"2026-07-18T15:46:38.916768","CLASSIFICATION_TYPE":"U","MEAN_MOTION":14.79924368,"ECCENTRICITY":0.0000586,"INCLINATION":51.8986,"RA_OF_ASC_NODE":183.9802,"ARG_OF_PERICENTER":62.2406,"MEAN_ANOMALY":297.8616,"EPHEMERIS_TYPE":0,"NORAD_CAT_ID":65771,"ELEMENT_SET_NO":999,"REV_AT_EPOCH":4427,"BSTAR":0.000066454,"MEAN_MOTION_DOT":0.00000285,"MEAN_MOTION_DDOT":0},{"OBJECT_NAME":"KUIPER-00152","OBJECT_ID":"2025-217L","EPOCH":"2026-07-18T08:48:32.205888","CLASSIFICATION_TYPE":"U","MEAN_MOTION":14.79935776,"ECCENTRICITY":0.00006561,"INCLINATION":51.9002,"RA_OF_ASC_NODE":172.7468,"ARG_OF_PERICENTER":63.5702,"MEAN_ANOMALY":296.5328,"EPHEMERIS_TYPE":0,"NORAD_CAT_ID":65772,"ELEMENT_SET_NO":999,"REV_AT_EPOCH":4440,"BSTAR":0.00018448332,"MEAN_MOTION_DOT":0.00001186,"MEAN_MOTION_DDOT":0}]}
